CTC1_L_00640007-03
1 10062U 22040LX  26075.70039352  .00000000  00000+0  00000-0 0  9995
2 10062  55.0000 180.0000 0000000   0.0000 144.0000  3.78963984    17
CTC1_L_00640007-04
1 10063U 22380HH  26075.70039352  .00000000  00000+0  00000-0 0  9993
2 10063  55.0000 180.0000 0000000   0.0000 180.0000  3.78963984    18
CTC1_L_00640007-05
1 10064U 26092AC  26075.70039352  .00000000  00000+0  00000-0 0  9998
2 10064  55.0000 180.0000 0000000   0.0000 216.0000  3.78963984    19
CTC1_L_00640007-06
1 10065U 25025VZ  26075.70039352  .00000000  00000+0  00000-0 0  9994
2 10065  55.0000 180.0000 0000000   0.0000 252.0000  3.78963984    10
CTC1_L_00640007-07
1 10066U 25159EA  26075.70039352  .00000000  00000+0  00000-0 0  9993
2 10066  55.0000 180.0000 0000000   0.0000 288.0000  3.78963984    10
CTC1_L_00640007-08
1 10067U 25253GB  26075.70039352  .00000000  00000+0  00000-0 0  9999
2 10067  55.0000 180.0000 0000000   0.0000 324.0000  3.78963984    12
CTC1_L_00640007-09
1 10068U 22438R   26075.70039352  .00000000  00000+0  00000-0 0  9992
2 10068  55.0000 180.0000 0000000   0.0000   0.0000  3.78963984    14
CTC1_L_00640007-10
1 10069U 22272FH  26075.70039352  .00000000  00000+0  00000-0 0  9999
2 10069  55.0000 180.0000 0000000   0.0000  36.0000  3.78963984    14
CTC1_L_00640008-01
1 10070U 25060TJ  26075.70039352  .00000000  00000+0  00000-0 0  9999
2 10070  55.0000 210.0000 0000000   0.0000  84.0000  3.78963984    13
CTC1_L_00640008-02
1 10071U 26314OV  26075.70039352  .00000000  00000+0  00000-0 0  9993
2 10071  55.0000 210.0000 0000000   0.0000 120.0000  3.78963984    15
CTC1_L_00640008-03
1 10072U 26723QR  26075.70039352  .00000000  00000+0  00000-0 0  9998
2 10072  55.0000 210.0000 0000000   0.0000 156.0000  3.78963984    15
CTC1_L_00640008-04
1 10073U 25770OH  26075.70039352  .00000000  00000+0  00000-0 0  9990
2 10073  55.0000 210.0000 0000000   0.0000 192.0000  3.78963984    16
CTC1_L_00640008-05
1 10074U 24576TN  26075.70039352  .00000000  00000+0  00000-0 0  9994
2 10074  55.0000 210.0000 0000000   0.0000 228.0000  3.78963984    17
CTC1_L_00640008-06
1 10075U 25331CR  26075.70039352  .00000000  00000+0  00000-0 0  9995
2 10075  55.0000 210.0000 0000000   0.0000 264.0000  3.78963984    18
CTC1_L_00640008-07
1 10076U 24343ND  26075.70039352  .00000000  00000+0  00000-0 0  9998
2 10076  55.0000 210.0000 0000000   0.0000 300.0000  3.78963984    10
CTC1_L_00640008-08
1 10077U 25611SV  26075.70039352  .00000000  00000+0  00000-0 0  9998
2 10077  55.0000 210.0000 0000000   0.0000 336.0000  3.78963984    10
CTC1_L_00640008-09
1 10078U 25464ZW  26075.70039352  .00000000  00000+0  00000-0 0  9995
2 10078  55.0000 210.0000 0000000   0.0000  12.0000  3.78963984    12
CTC1_L_00640008-10
1 10079U 26975WN  26075.70039352  .00000000  00000+0  00000-0 0  9994
2 10079  55.0000 210.0000 0000000   0.0000  48.0000  3.78963984    12
CTC1_L_00640009-01
1 10080U 26384OL  26075.70039352  .00000000  00000+0  00000-0 0  9990
2 10080  55.0000 240.0000 0000000   0.0000  96.0000  3.78963984    10
CTC1_L_00640009-02
1 10081U 26146EH  26075.70039352  .00000000  00000+0  00000-0 0  9997
2 10081  55.0000 240.0000 0000000   0.0000 132.0000  3.78963984    12
CTC1_L_00640009-03
1 10082U 23742KX  26075.70039352  .00000000  00000+0  00000-0 0  9997
2 10082  55.0000 240.0000 0000000   0.0000 168.0000  3.78963984    12
CTC1_L_00640009-04
1 10083U 22290BM  26075.70039352  .00000000  00000+0  00000-0 0  9995
2 10083  55.0000 240.0000 0000000   0.0000 204.0000  3.78963984    14
CTC1_L_00640009-05
1 10084U 23875NI  26075.70039352  .00000000  00000+0  00000-0 0  9996
2 10084  55.0000 240.0000 0000000   0.0000 240.0000  3.78963984    15
CTC1_L_00640009-06
1 10085U 26775EY  26075.70039352  .00000000  00000+0  00000-0 0  9999
2 10085  55.0000 240.0000 0000000   0.0000 276.0000  3.78963984    15
CTC1_L_00640009-07
1 10086U 24399EH  26075.70039352  .00000000  00000+0  00000-0 0  9990
2 10086  55.0000 240.0000 0000000   0.0000 312.0000  3.78963984    17
CTC1_L_00640009-08
1 10087U 22724LZ  26075.70039352  .00000000  00000+0  00000-0 0  9991
2 10087  55.0000 240.0000 0000000   0.0000 348.0000  3.78963984    17
CTC1_L_00640009-09
1 10088U 23186CM  26075.70039352  .00000000  00000+0  00000-0 0  9995
2 10088  55.0000 240.0000 0000000   0.0000  24.0000  3.78963984    19
CTC1_L_00640009-10
1 10089U 26119K   26075.70039352  .00000000  00000+0  00000-0 0  9995
2 10089  55.0000 240.0000 0000000   0.0000  60.0000  3.78963984    10
CTC1_L_00640010-01
1 10090U 24027RT  26075.70039352  .00000000  00000+0  00000-0 0  9993
2 10090  55.0000 270.0000 0000000   0.0000 108.0000  3.78963984    18
CTC1_L_00640010-02
1 10091U 26869OT  26075.70039352  .00000000  00000+0  00000-0 0  9990
2 10091  55.0000 270.0000 0000000   0.0000 144.0000  3.78963984    19
CTC1_L_00640010-03
1 10092U 22767GN  26075.70039352  .00000000  00000+0  00000-0 0  9994
2 10092  55.0000 270.0000 0000000   0.0000 180.0000  3.78963984    10
CTC1_L_00640010-04
1 10093U 22049SJ  26075.70039352  .00000000  00000+0  00000-0 0  9998
2 10093  55.0000 270.0000 0000000   0.0000 216.0000  3.78963984    11
CTC1_L_00640010-05
1 10094U 26507XJ  26075.70039352  .00000000  00000+0  00000-0 0  9992
2 10094  55.0000 270.0000 0000000   0.0000 252.0000  3.78963984    12
CTC1_L_00640010-06
1 10095U 26699VQ  26075.70039352  .00000000  00000+0  00000-0 0  9995
2 10095  55.0000 270.0000 0000000   0.0000 288.0000  3.78963984    12
CTC1_L_00640010-07
1 10096U 26214TL  26075.70039352  .00000000  00000+0  00000-0 0  9999
2 10096  55.0000 270.0000 0000000   0.0000 324.0000  3.78963984    14
CTC1_L_00640010-08
1 10097U 22419TH  26075.70039352  .00000000  00000+0  00000-0 0  9993
2 10097  55.0000 270.0000 0000000   0.0000   0.0000  3.78963984    16
CTC1_L_00640010-09
1 10098U 24134YT  26075.70039352  .00000000  00000+0  00000-0 0  9990
2 10098  55.0000 270.0000 0000000   0.0000  36.0000  3.78963984    16
CTC1_L_00640010-10
1 10099U 22064ZL  26075.70039352  .00000000  00000+0  00000-0 0  9991
2 10099  55.0000 270.0000 0000000   0.0000  72.0000  3.78963984    17
CTC1_L_00640011-01
1 10100U 25624IV  26075.70039352  .00000000  00000+0  00000-0 0  9999
2 10100  55.0000 300.0000 0000000   0.0000 120.0000  3.78963984    18
CTC1_L_00640011-02
1 10101U 25270YE  26075.70039352  .00000000  00000+0  00000-0 0  9997
2 10101  55.0000 300.0000 0000000   0.0000 156.0000  3.78963984    18
CTC1_L_00640011-03
1 10102U 24200MP  26075.70039352  .00000000  00000+0  00000-0 0  9990
2 10102  55.0000 300.0000 0000000   0.0000 192.0000  3.78963984    19
CTC1_L_00640011-04
1 10103U 22078BO  26075.70039352  .00000000  00000+0  00000-0 0  9992
2 10103  55.0000 300.0000 0000000   0.0000 228.0000  3.78963984    10
CTC1_L_00640011-05
1 10104U 24462TW  26075.70039352  .00000000  00000+0  00000-0 0  9992
2 10104  55.0000 300.0000 0000000   0.0000 264.0000  3.78963984    11
CTC1_L_00640011-06
1 10105U 25509VP  26075.70039352  .00000000  00000+0  00000-0 0  9996
2 10105  55.0000 300.0000 0000000   0.0000 300.0000  3.78963984    13
CTC1_L_00640011-07
1 10106U 26084WR  26075.70039352  .00000000  00000+0  00000-0 0  9996
2 10106  55.0000 300.0000 0000000   0.0000 336.0000  3.78963984    13
CTC1_L_00640011-08
1 10107U 24958NX  26075.70039352  .00000000  00000+0  00000-0 0  9995
2 10107  55.0000 300.0000 0000000   0.0000  12.0000  3.78963984    15
CTC1_L_00640011-09
1 10108U 23022KB  26075.70039352  .00000000  00000+0  00000-0 0  9997
2 10108  55.0000 300.0000 0000000   0.0000  48.0000  3.78963984    15
CTC1_L_00640011-10
1 10109U 24162VQ  26075.70039352  .00000000  00000+0  00000-0 0  9994
2 10109  55.0000 300.0000 0000000   0.0000  84.0000  3.78963984    16
CTC1_L_00640012-01
1 10110U 23170ST  26075.70039352  .00000000  00000+0  00000-0 0  9994
2 10110  55.0000 330.0000 0000000   0.0000 132.0000  3.78963984    15
CTC1_L_00640012-02
1 10111U 25128UU  26075.70039352  .00000000  00000+0  00000-0 0  9990
2 10111  55.0000 330.0000 0000000   0.0000 168.0000  3.78963984    15
CTC1_L_00640012-03
1 10112U 22625OS  26075.70039352  .00000000  00000+0  00000-0 0  9990
2 10112  55.0000 330.0000 0000000   0.0000 204.0000  3.78963984    17
CTC1_L_00640012-04
1 10113U 22131WM  26075.70039352  .00000000  00000+0  00000-0 0  9993
2 10113  55.0000 330.0000 0000000   0.0000 240.0000  3.78963984    18
CTC1_L_00640012-05
1 10114U 24869JH  26075.70039352  .00000000  00000+0  00000-0 0  9994
2 10114  55.0000 330.0000 0000000   0.0000 276.0000  3.78963984    18
CTC1_L_00640012-06
1 10115U 22443LL  26075.70039352  .00000000  00000+0  00000-0 0  9991
2 10115  55.0000 330.0000 0000000   0.0000 312.0000  3.78963984    10
CTC1_L_00640012-07
1 10116U 23465TY  26075.70039352  .00000000  00000+0  00000-0 0  9997
2 10116  55.0000 330.0000 0000000   0.0000 348.0000  3.78963984    10
CTC1_L_00640012-08
1 10117U 23742FW  26075.70039352  .00000000  00000+0  00000-0 0  9996
2 10117  55.0000 330.0000 0000000   0.0000  24.0000  3.78963984    12
CTC1_L_00640012-09
1 10118U 22308XQ  26075.70039352  .00000000  00000+0  00000-0 0  9994
2 10118  55.0000 330.0000 0000000   0.0000  60.0000  3.78963984    13
CTC1_L_00640012-10
1 10119U 24336FD  26075.70039352  .00000000  00000+0  00000-0 0  9998
2 10119  55.0000 330.0000 0000000   0.0000  96.0000  3.78963984    13
